1 20253U 89077A   26177.40534462 -.00000365  00000-0  00000+0 0  9998
2 20253  12.4189 351.1077 0003930  59.8402 135.2847  1.00272728260654
1 20776U 90079A   26162.20198486  .00000132  00000-0  00000-0 0  9998
2 20776  13.3424 349.8525 0002400  96.2313 279.5534  1.00274127130831
1 22787U 93056A   26177.67132910  .00000126  00000-0  00000+0 0  9999
2 22787  11.8978   3.5020 0004539   8.7103 172.8825  1.00273180118647
1 23467U 95003A   26177.44934199 -.00000020  00000-0  00000+0 0  9997
2 23467   9.6842  13.1531 0002952  79.2927 156.0877  1.00273466115045
1 23967U 96042A   26177.44243595 -.00000293  00000-0  00000+0 0  9991
2 23967  11.1253  17.0315 0006138 110.6534 259.4434  1.00210521109583
1 25544U 98067A   26177.47752734  .00007960  00000-0  15019-3 0  9993
2 25544  51.6324 254.1054 0004309 234.2414 125.8174 15.49438531573196
1 25967U 99063A   26176.93030833 -.00000187  00000-0  00000-0 0  9994
2 25967   9.8408  27.1653 0001599  63.7985 135.0117  1.00269320 97430
1 27168U 02001A   26177.24164124  .00000098  00000-0  00000+0 0  9990
2 27168  11.1903  21.8531 0099699   8.6688 349.7657  1.00270651 33042
1 27607U 02058C   26177.25860940  .00000937  00000-0  12777-3 0  9990
2 27607  64.5520 100.9188 0075048 260.7782  98.4830 14.83064844265804
1 28117U 03057A   26177.68058024 -.00000102  00000-0  00000+0 0  9993
2 28117   8.9522  33.7799 0002348  71.1193 130.5155  1.00271668 82544
1 28899U 05044A   26177.57816975 -.00000254  00000-0  00000+0 0  9991
2 28899   5.1068  43.6837 0003298  41.0859 181.5625  1.00272050 75612
1 30794U 07007B   26177.68448027 -.00000265  00000-0  00000+0 0  9992
2 30794   5.3238  73.6274 0003695  27.2518 155.5601  1.00271472 70793
1 32294U 07056B   26177.31420317  .00000146  00000-0  00000+0 0  9992
2 32294   5.2747  73.3963 0003424  25.1261 314.1162  1.00270661 68283
1 35943U 09054B   26177.67815358  .00000036  00000-0  00000+0 0  9996
2 35943   0.0602 138.1329 0003157 317.6526 126.1566  1.00271464 61400
1 36582U 10021B   26177.66829574  .00000100  00000-0  00000+0 0  9998
2 36582   0.0095 231.9425 0002590 228.4454  68.2536  1.00268427 59050
1 38098U 12011A   26177.67988691  .00000000  00000-0  00000+0 0  9999
2 38098   0.0373  55.3605 0001796  73.7049 102.6025  1.00270707  7287
1 39034U 12075A   26177.67607355  .00000111  00000-0  00000+0 0  9998
2 39034   0.0676 345.6857 0003928 116.8081 108.4893  1.00266006 49259
1 39215U 13038A   26177.74188468  .00000143  00000-0  00000+0 0  9991
2 39215   2.9989   1.3273 0002104 100.8139 104.6835  1.00271747 44110
1 40296U 14069A   26177.15802007  .00000302  00000-0  00000+0 0  9991
2 40296  63.4465 214.4506 6644917 270.5055  19.7781  2.00594842 85419
1 40931U 15052B   25151.18580782  .00001310  00000-0  87238-4 0  9990
2 40931   6.0001  24.1284 0012872 339.0660  20.8941 14.78806187523042
1 43678U 18084H   26177.70610935  .00002698  00000-0  21902-3 0  9995
2 43678  98.1205  14.3297 0013043 140.2716 219.9465 15.00493099417641
1 43700U 18090A   26177.74205801  .00000156  00000-0  00000+0 0  9993
2 43700   0.0090 302.7911 0002132 185.1403  79.8583  1.00270519 27776
1 43803U 18099AX  26177.68609532  .00016394  00000-0  50103-3 0  9992
2 43803  97.4134 240.5542 0005070 220.1283 139.9586 15.33941851415089
1 44453U 19046A   26177.68974627 -.00000122  00000-0  00000+0 0  9997
2 44453  63.1391  49.5370 7078242 274.8909  14.6245  2.00598018 50530
1 44909U 19096E   26177.69966103  .00000017  00000-0  17228-4 0  9996
2 44909  82.5225 333.3830 0218469 122.0146 240.2387 12.79749029303564
1 45254U 20015A   26177.44031154 -.00000119  00000-0  00000+0 0  9994
2 45254  65.5404 317.9988 6854411 277.7532  15.3937  2.00604755 46471
1 52145U 22030A   26176.94244075  .00000164  00000-0  00000-0 0  9992
2 52145  62.6784 139.8454 6786315 272.8503  17.6312  2.00612698 31209
1 57167U 23091B   26010.59363612  .08733485  25619-5  12458-2 0  9993
2 57167  97.4978  91.1570 0009532 282.8011  77.2220 16.34765267141469
1 59112U 24043Q   26177.38093513  .00041415  00000-0  52380-3 0  9992
2 59112  97.5531 328.3454 0007328 165.3783 194.7686 15.59385702129325
1 67291U 25313AV  26177.71969906  .00012844  00000-0  49374-3 0  9998
2 67291  97.3928 252.8310 0007430 325.6233  34.4524 15.26525470 27440
1 26635U 00080A   21013.46269075 0.00000000  00000-0  00000-0 0    09
2 26635   9.2857  29.8038 0014383 186.3086 173.6859  1.00273100    09
1 34810U 09020A   26118.58802400 0.00000000  00000-0  00000-0 0    05
2 34810   3.0809  80.0043 0003222 250.4250 109.5484  1.00270000    01
1 40614U 15022B   25359.93496764 0.00000000  00000-0  00000-0 0    00
2 40614   0.0160 108.2839 0003453 352.8976   7.0980  1.00270000    04
